CCSDS_OMM_VERS = 2.0
CREATION_DATE  = 
ORIGINATOR     = 

OBJECT_NAME    = HTV-X1
OBJECT_ID      = 2025-241A
CENTER_NAME    = EARTH
REF_FRAME      = TEME
TIME_SYSTEM    = UTC
MEAN_ELEMENT_THEORY = SGP/SGP4

EPOCH          = 2026-03-26T11:23:51.154368
MEAN_MOTION    = 15.32415484
ECCENTRICITY   = .0007394
INCLINATION    = 51.6383
RA_OF_ASC_NODE = 352.1959
ARG_OF_PERICENTER = 236.2204
MEAN_ANOMALY   = 123.8073

EPHEMERIS_TYPE = 0
CLASSIFICATION_TYPE = U
NORAD_CAT_ID   = 66174
ELEMENT_SET_NO = 999
REV_AT_EPOCH   = 2351
BSTAR          = .84804E-4
MEAN_MOTION_DOT = .2324E-4
MEAN_MOTION_DDOT = 0

CCSDS_OMM_VERS = 2.0
CREATION_DATE  = 
ORIGINATOR     = 

OBJECT_NAME    = SZ-21 MODULE
OBJECT_ID      = 2025-246C
CENTER_NAME    = EARTH
REF_FRAME      = TEME
TIME_SYSTEM    = UTC
MEAN_ELEMENT_THEORY = SGP/SGP4

EPOCH          = 2026-03-26T10:18:41.505984
MEAN_MOTION    = 15.69816747
ECCENTRICITY   = .0001204
INCLINATION    = 41.4744
RA_OF_ASC_NODE = 100.2120
ARG_OF_PERICENTER = 208.6321
MEAN_ANOMALY   = 151.4455

EPHEMERIS_TYPE = 0
CLASSIFICATION_TYPE = U
NORAD_CAT_ID   = 66515
ELEMENT_SET_NO = 999
REV_AT_EPOCH   = 2070
BSTAR          = .29374E-3
MEAN_MOTION_DOT = .35932E-3
MEAN_MOTION_DDOT = 0

CCSDS_OMM_VERS = 2.0
CREATION_DATE  = 
ORIGINATOR     = 

OBJECT_NAME    = SHENZHOU-22
OBJECT_ID      = 2025-272A
CENTER_NAME    = EARTH
REF_FRAME      = TEME
TIME_SYSTEM    = UTC
MEAN_ELEMENT_THEORY = SGP/SGP4

EPOCH          = 2026-03-26T11:26:24.884160
MEAN_MOTION    = 15.61516360
ECCENTRICITY   = .0004375
INCLINATION    = 41.4668
RA_OF_ASC_NODE = 105.9518
ARG_OF_PERICENTER = 27.8564
MEAN_ANOMALY   = 332.2509

EPHEMERIS_TYPE = 0
CLASSIFICATION_TYPE = U
NORAD_CAT_ID   = 66645
ELEMENT_SET_NO = 999
REV_AT_EPOCH   = 28034
BSTAR          = .25348E-3
MEAN_MOTION_DOT = .22078E-3
MEAN_MOTION_DDOT = 0

CCSDS_OMM_VERS = 2.0
CREATION_DATE  = 
ORIGINATOR     = 

OBJECT_NAME    = SOYUZ-MS 28
OBJECT_ID      = 2025-275A
CENTER_NAME    = EARTH
REF_FRAME      = TEME
TIME_SYSTEM    = UTC
MEAN_ELEMENT_THEORY = SGP/SGP4

EPOCH          = 2026-03-26T10:08:08.506752
MEAN_MOTION    = 15.48556416
ECCENTRICITY   = .0006244
INCLINATION    = 51.6341
RA_OF_ASC_NODE = 349.6418
ARG_OF_PERICENTER = 234.7318
MEAN_ANOMALY   = 125.3087

EPHEMERIS_TYPE = 0
CLASSIFICATION_TYPE = U
NORAD_CAT_ID   = 66664
ELEMENT_SET_NO = 999
REV_AT_EPOCH   = 55898
BSTAR          = .23936E-3
MEAN_MOTION_DOT = .12562E-3
MEAN_MOTION_DDOT = 0

CCSDS_OMM_VERS = 2.0
CREATION_DATE  = 
ORIGINATOR     = 

OBJECT_NAME    = DUPLEX
OBJECT_ID      = 1998-067XS
CENTER_NAME    = EARTH
REF_FRAME      = TEME
TIME_SYSTEM    = UTC
MEAN_ELEMENT_THEORY = SGP/SGP4

EPOCH          = 2026-03-26T00:28:36.677280
MEAN_MOTION    = 15.57222315
ECCENTRICITY   = .00032159
INCLINATION    = 51.6300
RA_OF_ASC_NODE = 347.7072
ARG_OF_PERICENTER = 183.4701
MEAN_ANOMALY   = 176.6269

EPHEMERIS_TYPE = 0
CLASSIFICATION_TYPE = U
NORAD_CAT_ID   = 66906
ELEMENT_SET_NO = 999
REV_AT_EPOCH   = 1767
BSTAR          = .35962218E-3
MEAN_MOTION_DOT = .26281E-3
MEAN_MOTION_DDOT = 0

CCSDS_OMM_VERS = 2.0
CREATION_DATE  = 
ORIGINATOR     = 

OBJECT_NAME    = ISS OBJECT XT
OBJECT_ID      = 1998-067XT
CENTER_NAME    = EARTH
REF_FRAME      = TEME
TIME_SYSTEM    = UTC
MEAN_ELEMENT_THEORY = SGP/SGP4

EPOCH          = 2026-03-26T10:15:40.237056
MEAN_MOTION    = 15.75280824
ECCENTRICITY   = .000561
INCLINATION    = 51.6254
RA_OF_ASC_NODE = 339.8957
ARG_OF_PERICENTER = 187.9227
MEAN_ANOMALY   = 172.1685

EPHEMERIS_TYPE = 0
CLASSIFICATION_TYPE = U
NORAD_CAT_ID   = 66907
ELEMENT_SET_NO = 999
REV_AT_EPOCH   = 1781
BSTAR          = .122E-2
MEAN_MOTION_DOT = .191469E-2
MEAN_MOTION_DDOT = 0

CCSDS_OMM_VERS = 2.0
CREATION_DATE  = 
ORIGINATOR     = 

OBJECT_NAME    = ISS OBJECT XU
OBJECT_ID      = 1998-067XU
CENTER_NAME    = EARTH
REF_FRAME      = TEME
TIME_SYSTEM    = UTC
MEAN_ELEMENT_THEORY = SGP/SGP4

EPOCH          = 2026-03-26T10:10:44.346432
MEAN_MOTION    = 15.75499805
ECCENTRICITY   = .0005785
INCLINATION    = 51.6243
RA_OF_ASC_NODE = 339.8688
ARG_OF_PERICENTER = 187.8084
MEAN_ANOMALY   = 172.2826

EPHEMERIS_TYPE = 0
CLASSIFICATION_TYPE = U
NORAD_CAT_ID   = 66908
ELEMENT_SET_NO = 999
REV_AT_EPOCH   = 1781
BSTAR          = .12482E-2
MEAN_MOTION_DOT = .197946E-2
MEAN_MOTION_DDOT = 0

CCSDS_OMM_VERS = 2.0
CREATION_DATE  = 
ORIGINATOR     = 

OBJECT_NAME    = SILVERSAT
OBJECT_ID      = 1998-067XV
CENTER_NAME    = EARTH
REF_FRAME      = TEME
TIME_SYSTEM    = UTC
MEAN_ELEMENT_THEORY = SGP/SGP4

EPOCH          = 2026-03-26T01:39:57.278016
MEAN_MOTION    = 15.80138223
ECCENTRICITY   = .00065491
INCLINATION    = 51.6220
RA_OF_ASC_NODE = 340.4900
ARG_OF_PERICENTER = 190.6465
MEAN_ANOMALY   = 169.4399

EPHEMERIS_TYPE = 0
CLASSIFICATION_TYPE = U
NORAD_CAT_ID   = 66909
ELEMENT_SET_NO = 999
REV_AT_EPOCH   = 1777
BSTAR          = .13650058E-2
MEAN_MOTION_DOT = .268808E-2
MEAN_MOTION_DDOT = 0

CCSDS_OMM_VERS = 2.0
CREATION_DATE  = 
ORIGINATOR     = 

OBJECT_NAME    = ISS OBJECT XW
OBJECT_ID      = 1998-067XW
CENTER_NAME    = EARTH
REF_FRAME      = TEME
TIME_SYSTEM    = UTC
MEAN_ELEMENT_THEORY = SGP/SGP4

EPOCH          = 2026-03-26T02:45:45.008928
MEAN_MOTION    = 15.73866455
ECCENTRICITY   = .00060726
INCLINATION    = 51.6240
RA_OF_ASC_NODE = 341.5525
ARG_OF_PERICENTER = 184.4590
MEAN_ANOMALY   = 175.6356

EPHEMERIS_TYPE = 0
CLASSIFICATION_TYPE = U
NORAD_CAT_ID   = 66910
ELEMENT_SET_NO = 999
REV_AT_EPOCH   = 1776
BSTAR          = .11683659E-2
MEAN_MOTION_DOT = .172036E-2
MEAN_MOTION_DDOT = 0

CCSDS_OMM_VERS = 2.0
CREATION_DATE  = 
ORIGINATOR     = 

OBJECT_NAME    = ISS OBJECT XX
OBJECT_ID      = 1998-067XX
CENTER_NAME    = EARTH
REF_FRAME      = TEME
TIME_SYSTEM    = UTC
MEAN_ELEMENT_THEORY = SGP/SGP4

EPOCH          = 2026-03-26T09:35:50.189280
MEAN_MOTION    = 15.86245676
ECCENTRICITY   = .0008176
INCLINATION    = 51.6194
RA_OF_ASC_NODE = 337.4135
ARG_OF_PERICENTER = 196.9003
MEAN_ANOMALY   = 163.1730

EPHEMERIS_TYPE = 0
CLASSIFICATION_TYPE = U
NORAD_CAT_ID   = 66911
ELEMENT_SET_NO = 999
REV_AT_EPOCH   = 1783
BSTAR          = .15289E-2
MEAN_MOTION_DOT = .408574E-2
MEAN_MOTION_DDOT = 0

CCSDS_OMM_VERS = 2.0
CREATION_DATE  = 
ORIGINATOR     = 

OBJECT_NAME    = ISS OBJECT XY
OBJECT_ID      = 1998-067XY
CENTER_NAME    = EARTH
REF_FRAME      = TEME
TIME_SYSTEM    = UTC
MEAN_ELEMENT_THEORY = SGP/SGP4

EPOCH          = 2026-03-26T10:27:20.548800
MEAN_MOTION    = 15.67055761
ECCENTRICITY   = .0004083
INCLINATION    = 51.6273
RA_OF_ASC_NODE = 342.2219
ARG_OF_PERICENTER = 185.4172
MEAN_ANOMALY   = 174.6780

EPHEMERIS_TYPE = 0
CLASSIFICATION_TYPE = U
NORAD_CAT_ID   = 66912
ELEMENT_SET_NO = 999
REV_AT_EPOCH   = 1777
BSTAR          = .8946E-3
MEAN_MOTION_DOT = .97978E-3
MEAN_MOTION_DDOT = 0

CCSDS_OMM_VERS = 2.0
CREATION_DATE  = 
ORIGINATOR     = 

OBJECT_NAME    = KNACKSAT-2
OBJECT_ID      = 1998-067XZ
CENTER_NAME    = EARTH
REF_FRAME      = TEME
TIME_SYSTEM    = UTC
MEAN_ELEMENT_THEORY = SGP/SGP4

EPOCH          = 2026-03-26T00:18:49.860576
MEAN_MOTION    = 15.53163580
ECCENTRICITY   = .00099022
INCLINATION    = 51.6321
RA_OF_ASC_NODE = 350.6612
ARG_OF_PERICENTER = 244.8689
MEAN_ANOMALY   = 115.1274

EPHEMERIS_TYPE = 0
CLASSIFICATION_TYPE = U
NORAD_CAT_ID   = 67683
ELEMENT_SET_NO = 999
REV_AT_EPOCH   = 732
BSTAR          = .5727971E-3
MEAN_MOTION_DOT = .3637E-3
MEAN_MOTION_DDOT = 0

