HTV-X1                  
1 66174U 25241A   26085.47489762  .00002324  00000+0  84804-4 0  9994
2 66174  51.6383 352.1959 0007394 236.2204 123.8073 15.32415484 23510
SZ-21 MODULE            
1 66515U 25246C   26085.42964706  .00035932  00000+0  29374-3 0  9990
2 66515  41.4744 100.2120 0001204 208.6321 151.4455 15.69816747 20702
SHENZHOU-22             
1 66645U 25272A   26085.47667690  .00022078  00000+0  25348-3 0  9994
2 66645  41.4668 105.9518 0004375  27.8564 332.2509 15.61516360280343
SOYUZ-MS 28             
1 66664U 25275A   26085.42232068  .00012562  00000+0  23936-3 0  9998
2 66664  51.6341 349.6418 0006244 234.7318 125.3087 15.48556416558985
DUPLEX                  
1 66906U 98067XS  26085.01986895  .00026281  00000+0  35962-3 0  9990
2 66906  51.6300 347.7072 0003215 183.4701 176.6269 15.57222315 17670
ISS OBJECT XT           
1 66907U 98067XT  26085.42754904  .00191469  00000+0  12200-2 0  9990
2 66907  51.6254 339.8957 0005610 187.9227 172.1685 15.75280824 17814
ISS OBJECT XU           
1 66908U 98067XU  26085.42412438  .00197946  00000+0  12482-2 0  9992
2 66908  51.6243 339.8688 0005785 187.8084 172.2826 15.75499805 17816
SILVERSAT               
1 66909U 98067XV  26085.06941294  .00268808  00000+0  13650-2 0  9994
2 66909  51.6220 340.4900 0006549 190.6465 169.4399 15.80138223 17779
ISS OBJECT XW           
1 66910U 98067XW  26085.11510427  .00172036  00000+0  11684-2 0  9994
2 66910  51.6240 341.5525 0006072 184.4590 175.6356 15.73866455 17767
ISS OBJECT XX           
1 66911U 98067XX  26085.39988645  .00408574  00000+0  15289-2 0  9990
2 66911  51.6194 337.4135 0008176 196.9003 163.1730 15.86245676 17837
ISS OBJECT XY           
1 66912U 98067XY  26085.43565450  .00097978  00000+0  89460-3 0  9996
2 66912  51.6273 342.2219 0004083 185.4172 174.6780 15.67055761 17774
KNACKSAT-2              
1 67683U 98067XZ  26085.01307709  .00036370  00000+0  57280-3 0  9991
2 67683  51.6321 350.6612 0009902 244.8689 115.1274 15.53163580  7324
